OBJECT_NAME,OBJECT_ID,EPOCH,MEAN_MOTION,ECCENTRICITY,INCLINATION,RA_OF_ASC_NODE,ARG_OF_PERICENTER,MEAN_ANOMALY,EPHEMERIS_TYPE,CLASSIFICATION_TYPE,NORAD_CAT_ID,ELEMENT_SET_NO,REV_AT_EPOCH,BSTAR,MEAN_MOTION_DOT,MEAN_MOTION_DDOT
PERSEUS-M1,2014-033AF,2026-06-13T19:47:44.651040,14.95622915,.0010549,97.9644,108.9017,314.3223,45.7131,0,U,40039,999,65013,.11032E-3,.1165E-4,0
POLYITAN-1,2014-033AJ,2026-06-13T14:14:17.683872,15.33140093,.0008379,98.0941,190.5143,151.4693,208.7007,0,U,40042,999,65304,.59022E-3,.18854E-3,0
AEROCUBE 6B,2014-033AN,2026-06-13T10:08:45.694176,14.99536094,.00386355,97.7232,331.1933,22.2270,338.0617,0,U,40046,999,64619,.47408603E-3,.5856E-4,0
AEROCUBE 5C,2015-058B,2026-06-13T16:25:02.557632,14.91439290,.0130606,64.7679,273.4878,64.6416,296.8154,0,U,40965,999,36513,.21937E-3,.241E-4,0
AEROCUBE 7,2015-058C,2026-06-13T14:57:52.807104,14.95704832,.0120315,64.7630,255.9778,63.1063,298.2287,0,U,40966,999,36542,.26787E-3,.3277E-4,0
FOX-1A (AO-85),2015-058D,2026-06-13T17:31:56.377632,14.90954961,.0130286,64.7761,289.7255,57.8943,303.4737,0,U,40967,999,11305,.23134E-3,.2516E-4,0
SINOD-D 1,2015-058E,2026-06-13T16:03:01.087776,14.95885729,.0118816,64.7761,269.9304,54.4829,306.7298,0,U,40968,999,11613,.28164E-3,.346E-4,0
SNAP-3 ALICE,2015-058G,2026-06-13T13:59:36.610368,15.59302899,.0029039,64.7494,116.3819,14.8133,345.3856,0,U,40970,999,11632,.14774E-2,.12094E-2,0
LMRST-SAT,2015-058H,2026-06-13T14:49:41.731104,14.90575803,.0131881,64.7766,286.4068,60.0183,301.3942,0,U,40971,999,11302,.21956E-3,.2363E-4,0
PROPCUBE 3,2015-058K,2026-06-13T15:53:32.980128,14.94240218,.0123866,64.7689,263.5489,61.3006,300.0491,0,U,40973,999,11427,.24855E-3,.293E-4,0
BISONSAT,2015-058L,2026-06-13T08:08:42.843264,15.16110491,.00786793,64.7583,186.0846,48.8392,311.9484,0,U,40974,999,11503,.52740827E-3,.10852E-3,0
SNAP-3 JIMI,2015-058M,2026-06-13T12:40:08.728320,15.02269914,.01059655,64.7647,231.3502,56.8578,304.2652,0,U,40975,999,11367,.31893366E-3,.4581E-4,0
SINOD-D 3,2015-058P,2026-06-13T16:38:21.221088,14.93996432,.0119084,64.7735,286.7288,59.5186,301.7623,0,U,40977,999,11423,.28966E-3,.3383E-4,0
HORYU-4,2016-012D,2026-06-13T05:50:53.324736,15.92808659,.0004244,30.9840,107.9281,244.6601,115.3620,0,U,41340,999,57018,.11265E-2,.411178E-2,.59322E-4
CELTEE 1,2016-067C,2026-06-13T14:03:17.208576,15.19649941,.0000728,98.0678,30.9074,119.4992,240.6314,0,U,41850,999,52533,.27051E-3,.5691E-4,0
OPTICUBE 04,2016-067D,2026-06-13T13:35:24.141696,15.09645471,.0016779,98.0701,16.6614,126.7802,233.4968,0,U,41851,999,52462,.12025E-3,.1869E-4,0
AEROCUBE 8D,2016-067E,2026-06-13T14:39:42.809760,15.24352008,.0004502,98.0691,34.5106,131.9611,228.2008,0,U,41852,999,52552,.30933E-3,.7493E-4,0
CORVUS BC2,2017-042X,2026-06-13T09:47:58.809120,15.06270804,.00141866,97.4051,325.9054,122.2810,237.9794,0,U,42846,999,48649,.25381228E-3,.3675E-4,0
